IRIDIUM 39              
1 25042U 97069D   25327.54708266  .00000745  00000+0  18887-3 0  9991
2 25042  86.3907 142.8636 0019295 129.8976 230.3928 14.49460533472049
IRIDIUM 38              
1 25043U 97069E   25327.63714231  .00000451  00000+0  14192-3 0  9990
2 25043  86.3975 166.1400 0000935  20.6685 339.4551 14.38287433468872
IRIDIUM 42              
1 25077U 97077A   25327.56100924  .00000402  00000+0  13031-3 0  9993
2 25077  86.3985 172.5336 0001632  66.4915 293.6453 14.36508091464072
IRIDIUM 44              
1 25078U 97077B   25327.57135451  .00000420  00000+0  12598-3 0  9995
2 25078  86.3964 154.0454 0001536 148.1659 211.9634 14.40408195466640
IRIDIUM 45              
1 25104U 97082A   25327.71461053  .00021183  00000+0  61672-3 0  9993
2 25104  86.3538 330.0447 0104440  91.0884 270.2333 15.29905323476366
IRIDIUM 24              
1 25105U 97082B   25327.61532937  .00000449  00000+0  13005-3 0  9992
2 25105  86.3929  12.6664 0009130 270.6888  89.3266 14.42301253466194
IRIDIUM 51              
1 25262U 98018A   25327.78347314  .00083761  00000+0  10375-2 0  9991
2 25262  86.3744 335.9454 0056806 354.5605   5.5033 15.57792944471693
IRIDIUM 57              
1 25273U 98019B   25327.74947615  .00000435  00000+0  14305-3 0  9995
2 25273  86.3952  78.3536 0001963  94.2728 265.8693 14.36029411447686
