<?xml version="1.0" encoding="UTF-8"?>
<ndm xmlns:xsi="http://www.w3.org/2001/XMLSchema-instance" xsi:noNamespaceSchemaLocation="https://sanaregistry.org/r/ndmxml_unqualified/ndmxml-2.0.0-master-2.0.xsd">
<omm id="CCSDS_OMM_VERS" version="2.0">
<header><CREATION_DATE/><ORIGINATOR/></header><body><segment><metadata><OBJECT_NAME>IRIDIUM 39</OBJECT_NAME><OBJECT_ID>1997-069D</OBJECT_ID><CENTER_NAME>EARTH</CENTER_NAME><REF_FRAME>TEME</REF_FRAME><TIME_SYSTEM>UTC</TIME_SYSTEM><MEAN_ELEMENT_THEORY>SGP4</MEAN_ELEMENT_THEORY></metadata><data><meanElements><EPOCH>2025-11-23T13:07:47.941824</EPOCH><MEAN_MOTION>14.49460533</MEAN_MOTION><ECCENTRICITY>.0019295</ECCENTRICITY><INCLINATION>86.3907</INCLINATION><RA_OF_ASC_NODE>142.8636</RA_OF_ASC_NODE><ARG_OF_PERICENTER>129.8976</ARG_OF_PERICENTER><MEAN_ANOMALY>230.3928</MEAN_ANOMALY></meanElements><tleParameters><EPHEMERIS_TYPE>0</EPHEMERIS_TYPE><CLASSIFICATION_TYPE>U</CLASSIFICATION_TYPE><NORAD_CAT_ID>25042</NORAD_CAT_ID><ELEMENT_SET_NO>999</ELEMENT_SET_NO><REV_AT_EPOCH>47204</REV_AT_EPOCH><BSTAR>.18887E-3</BSTAR><MEAN_MOTION_DOT>.745E-5</MEAN_MOTION_DOT><MEAN_MOTION_DDOT>0</MEAN_MOTION_DDOT></tleParameters></data></segment></body></omm>
<omm id="CCSDS_OMM_VERS" version="2.0">
<header><CREATION_DATE/><ORIGINATOR/></header><body><segment><metadata><OBJECT_NAME>IRIDIUM 38</OBJECT_NAME><OBJECT_ID>1997-069E</OBJECT_ID><CENTER_NAME>EARTH</CENTER_NAME><REF_FRAME>TEME</REF_FRAME><TIME_SYSTEM>UTC</TIME_SYSTEM><MEAN_ELEMENT_THEORY>SGP4</MEAN_ELEMENT_THEORY></metadata><data><meanElements><EPOCH>2025-11-23T15:17:29.095584</EPOCH><MEAN_MOTION>14.38287433</MEAN_MOTION><ECCENTRICITY>.0000935</ECCENTRICITY><INCLINATION>86.3975</INCLINATION><RA_OF_ASC_NODE>166.1400</RA_OF_ASC_NODE><ARG_OF_PERICENTER>20.6685</ARG_OF_PERICENTER><MEAN_ANOMALY>339.4551</MEAN_ANOMALY></meanElements><tleParameters><EPHEMERIS_TYPE>0</EPHEMERIS_TYPE><CLASSIFICATION_TYPE>U</CLASSIFICATION_TYPE><NORAD_CAT_ID>25043</NORAD_CAT_ID><ELEMENT_SET_NO>999</ELEMENT_SET_NO><REV_AT_EPOCH>46887</REV_AT_EPOCH><BSTAR>.14192E-3</BSTAR><MEAN_MOTION_DOT>.451E-5</MEAN_MOTION_DOT><MEAN_MOTION_DDOT>0</MEAN_MOTION_DDOT></tleParameters></data></segment></body></omm>
<omm id="CCSDS_OMM_VERS" version="2.0">
<header><CREATION_DATE/><ORIGINATOR/></header><body><segment><metadata><OBJECT_NAME>IRIDIUM 42</OBJECT_NAME><OBJECT_ID>1997-077A</OBJECT_ID><CENTER_NAME>EARTH</CENTER_NAME><REF_FRAME>TEME</REF_FRAME><TIME_SYSTEM>UTC</TIME_SYSTEM><MEAN_ELEMENT_THEORY>SGP4</MEAN_ELEMENT_THEORY></metadata><data><meanElements><EPOCH>2025-11-23T13:27:51.198336</EPOCH><MEAN_MOTION>14.36508091</MEAN_MOTION><ECCENTRICITY>.0001632</ECCENTRICITY><INCLINATION>86.3985</INCLINATION><RA_OF_ASC_NODE>172.5336</RA_OF_ASC_NODE><ARG_OF_PERICENTER>66.4915</ARG_OF_PERICENTER><MEAN_ANOMALY>293.6453</MEAN_ANOMALY></meanElements><tleParameters><EPHEMERIS_TYPE>0</EPHEMERIS_TYPE><CLASSIFICATION_TYPE>U</CLASSIFICATION_TYPE><NORAD_CAT_ID>25077</NORAD_CAT_ID><ELEMENT_SET_NO>999</ELEMENT_SET_NO><REV_AT_EPOCH>46407</REV_AT_EPOCH><BSTAR>.13031E-3</BSTAR><MEAN_MOTION_DOT>.402E-5</MEAN_MOTION_DOT><MEAN_MOTION_DDOT>0</MEAN_MOTION_DDOT></tleParameters></data></segment></body></omm>
<omm id="CCSDS_OMM_VERS" version="2.0">
<header><CREATION_DATE/><ORIGINATOR/></header><body><segment><metadata><OBJECT_NAME>IRIDIUM 44</OBJECT_NAME><OBJECT_ID>1997-077B</OBJECT_ID><CENTER_NAME>EARTH</CENTER_NAME><REF_FRAME>TEME</REF_FRAME><TIME_SYSTEM>UTC</TIME_SYSTEM><MEAN_ELEMENT_THEORY>SGP4</MEAN_ELEMENT_THEORY></metadata><data><meanElements><EPOCH>2025-11-23T13:42:45.029664</EPOCH><MEAN_MOTION>14.40408195</MEAN_MOTION><ECCENTRICITY>.0001536</ECCENTRICITY><INCLINATION>86.3964</INCLINATION><RA_OF_ASC_NODE>154.0454</RA_OF_ASC_NODE><ARG_OF_PERICENTER>148.1659</ARG_OF_PERICENTER><MEAN_ANOMALY>211.9634</MEAN_ANOMALY></meanElements><tleParameters><EPHEMERIS_TYPE>0</EPHEMERIS_TYPE><CLASSIFICATION_TYPE>U</CLASSIFICATION_TYPE><NORAD_CAT_ID>25078</NORAD_CAT_ID><ELEMENT_SET_NO>999</ELEMENT_SET_NO><REV_AT_EPOCH>46664</REV_AT_EPOCH><BSTAR>.12598E-3</BSTAR><MEAN_MOTION_DOT>.42E-5</MEAN_MOTION_DOT><MEAN_MOTION_DDOT>0</MEAN_MOTION_DDOT></tleParameters></data></segment></body></omm>
<omm id="CCSDS_OMM_VERS" version="2.0">
<header><CREATION_DATE/><ORIGINATOR/></header><body><segment><metadata><OBJECT_NAME>IRIDIUM 45</OBJECT_NAME><OBJECT_ID>1997-082A</OBJECT_ID><CENTER_NAME>EARTH</CENTER_NAME><REF_FRAME>TEME</REF_FRAME><TIME_SYSTEM>UTC</TIME_SYSTEM><MEAN_ELEMENT_THEORY>SGP4</MEAN_ELEMENT_THEORY></metadata><data><meanElements><EPOCH>2025-11-23T17:09:02.349792</EPOCH><MEAN_MOTION>15.29905323</MEAN_MOTION><ECCENTRICITY>.010444</ECCENTRICITY><INCLINATION>86.3538</INCLINATION><RA_OF_ASC_NODE>330.0447</RA_OF_ASC_NODE><ARG_OF_PERICENTER>91.0884</ARG_OF_PERICENTER><MEAN_ANOMALY>270.2333</MEAN_ANOMALY></meanElements><tleParameters><EPHEMERIS_TYPE>0</EPHEMERIS_TYPE><CLASSIFICATION_TYPE>U</CLASSIFICATION_TYPE><NORAD_CAT_ID>25104</NORAD_CAT_ID><ELEMENT_SET_NO>999</ELEMENT_SET_NO><REV_AT_EPOCH>47636</REV_AT_EPOCH><BSTAR>.61672E-3</BSTAR><MEAN_MOTION_DOT>.21183E-3</MEAN_MOTION_DOT><MEAN_MOTION_DDOT>0</MEAN_MOTION_DDOT></tleParameters></data></segment></body></omm>
<omm id="CCSDS_OMM_VERS" version="2.0">
<header><CREATION_DATE/><ORIGINATOR/></header><body><segment><metadata><OBJECT_NAME>IRIDIUM 24</OBJECT_NAME><OBJECT_ID>1997-082B</OBJECT_ID><CENTER_NAME>EARTH</CENTER_NAME><REF_FRAME>TEME</REF_FRAME><TIME_SYSTEM>UTC</TIME_SYSTEM><MEAN_ELEMENT_THEORY>SGP4</MEAN_ELEMENT_THEORY></metadata><data><meanElements><EPOCH>2025-11-23T14:46:04.457568</EPOCH><MEAN_MOTION>14.42301253</MEAN_MOTION><ECCENTRICITY>.000913</ECCENTRICITY><INCLINATION>86.3929</INCLINATION><RA_OF_ASC_NODE>12.6664</RA_OF_ASC_NODE><ARG_OF_PERICENTER>270.6888</ARG_OF_PERICENTER><MEAN_ANOMALY>89.3266</MEAN_ANOMALY></meanElements><tleParameters><EPHEMERIS_TYPE>0</EPHEMERIS_TYPE><CLASSIFICATION_TYPE>U</CLASSIFICATION_TYPE><NORAD_CAT_ID>25105</NORAD_CAT_ID><ELEMENT_SET_NO>999</ELEMENT_SET_NO><REV_AT_EPOCH>46619</REV_AT_EPOCH><BSTAR>.13005E-3</BSTAR><MEAN_MOTION_DOT>.449E-5</MEAN_MOTION_DOT><MEAN_MOTION_DDOT>0</MEAN_MOTION_DDOT></tleParameters></data></segment></body></omm>
<omm id="CCSDS_OMM_VERS" version="2.0">
<header><CREATION_DATE/><ORIGINATOR/></header><body><segment><metadata><OBJECT_NAME>IRIDIUM 51</OBJECT_NAME><OBJECT_ID>1998-018A</OBJECT_ID><CENTER_NAME>EARTH</CENTER_NAME><REF_FRAME>TEME</REF_FRAME><TIME_SYSTEM>UTC</TIME_SYSTEM><MEAN_ELEMENT_THEORY>SGP4</MEAN_ELEMENT_THEORY></metadata><data><meanElements><EPOCH>2025-11-23T18:48:12.079296</EPOCH><MEAN_MOTION>15.57792944</MEAN_MOTION><ECCENTRICITY>.0056806</ECCENTRICITY><INCLINATION>86.3744</INCLINATION><RA_OF_ASC_NODE>335.9454</RA_OF_ASC_NODE><ARG_OF_PERICENTER>354.5605</ARG_OF_PERICENTER><MEAN_ANOMALY>5.5033</MEAN_ANOMALY></meanElements><tleParameters><EPHEMERIS_TYPE>0</EPHEMERIS_TYPE><CLASSIFICATION_TYPE>U</CLASSIFICATION_TYPE><NORAD_CAT_ID>25262</NORAD_CAT_ID><ELEMENT_SET_NO>999</ELEMENT_SET_NO><REV_AT_EPOCH>47169</REV_AT_EPOCH><BSTAR>.10375E-2</BSTAR><MEAN_MOTION_DOT>.83761E-3</MEAN_MOTION_DOT><MEAN_MOTION_DDOT>0</MEAN_MOTION_DDOT></tleParameters></data></segment></body></omm>
<omm id="CCSDS_OMM_VERS" version="2.0">
<header><CREATION_DATE/><ORIGINATOR/></header><body><segment><metadata><OBJECT_NAME>IRIDIUM 57</OBJECT_NAME><OBJECT_ID>1998-019B</OBJECT_ID><CENTER_NAME>EARTH</CENTER_NAME><REF_FRAME>TEME</REF_FRAME><TIME_SYSTEM>UTC</TIME_SYSTEM><MEAN_ELEMENT_THEORY>SGP4</MEAN_ELEMENT_THEORY></metadata><data><meanElements><EPOCH>2025-11-23T17:59:14.739360</EPOCH><MEAN_MOTION>14.36029411</MEAN_MOTION><ECCENTRICITY>.0001963</ECCENTRICITY><INCLINATION>86.3952</INCLINATION><RA_OF_ASC_NODE>78.3536</RA_OF_ASC_NODE><ARG_OF_PERICENTER>94.2728</ARG_OF_PERICENTER><MEAN_ANOMALY>265.8693</MEAN_ANOMALY></meanElements><tleParameters><EPHEMERIS_TYPE>0</EPHEMERIS_TYPE><CLASSIFICATION_TYPE>U</CLASSIFICATION_TYPE><NORAD_CAT_ID>25273</NORAD_CAT_ID><ELEMENT_SET_NO>999</ELEMENT_SET_NO><REV_AT_EPOCH>44768</REV_AT_EPOCH><BSTAR>.14305E-3</BSTAR><MEAN_MOTION_DOT>.435E-5</MEAN_MOTION_DOT><MEAN_MOTION_DDOT>0</MEAN_MOTION_DDOT></tleParameters></data></segment></body></omm>

</ndm>
